ORBCOMM FM37            
1 33064U 08031E   25088.86681078  .00003596  00000+0  50522-3 0  9994
2 33064  48.4409   0.6327 0005446  30.4306  50.0566 14.79362669902624
ORBCOMM FM40            
1 33065U 08031F   25088.16254962  .00004886  00000+0  64319-3 0  9998
2 33065  48.4430 349.3227 0006582  41.4162  78.5219 14.81490470902293
VESSELSAT 1             
1 37840U 11058C   25087.99484998  .00000501  00000+0  12854-3 0  9997
2 37840  19.9607 219.1269 0013739  24.9111 335.1955 14.11330591694960
ORBCOMM FM109           
1 40086U 14040A   25088.15096906  .00002097  00000+0  48862-3 0  9994
2 40086  47.0038  34.2461 0002392 321.6329  38.4386 14.57986950569381
ORBCOMM FM107           
1 40087U 14040B   25088.86835473  .00001811  00000+0  42640-3 0  9994
2 40087  47.0055  31.8506 0001979 284.5355  75.5311 14.58051602569603
ORBCOMM FM106           
1 40088U 14040C   25088.33403612  .00003107  00000+0  55296-3 0  9994
2 40088  47.0589 222.8523 0016070  55.0705 305.1694 14.69171020571737
ORBCOMM FM111           
1 40089U 14040D   25088.28001047  .00005904  00000+0  69152-3 0  9998
2 40089  47.0001  83.9808 0029720 171.2963 188.8454 14.85701304578348
ORBCOMM FM104           
1 40090U 14040E   25088.90733137  .00001521  00000+0  37598-3 0  9991
2 40090  47.0052  64.3260 0016503 206.0193 153.9863 14.56477222569162
